{"type": "FeatureCollection", "features": [ {"type": "Feature", "properties": {"norad_id": 35885, "name": "COSMOS 2251 DEB", "group": "cosmos-2251-debris", "lat": -36.63256135865223, "lon": 127.86020567113104, "alt_km": 787.9927792417766, "timestamp": "2025-12-12T07:43:20.912703+00:00", "meta": {"OBJECT_NAME": "COSMOS 2251 DEB", "OBJECT_ID": "1993-036ATY", "EPOCH": "2025-12-11T14:00:29.145024", "MEAN_MOTION": 14.3751698, "ECCENTRICITY": 0.00231325, "INCLINATION": 74.0283, "RA_OF_ASC_NODE": 296.9234, "ARG_OF_PERICENTER": 17.6536, "MEAN_ANOMALY": 342.5416, "EPHEMERIS_TYPE": 0, "CLASSIFICATION_TYPE": "U", "NORAD_CAT_ID": 35885, "ELEMENT_SET_NO": 999, "REV_AT_EPOCH": 64999, "BSTAR": 0.0005257643, "MEAN_MOTION_DOT": 1.554e-05, "MEAN_MOTION_DDOT": 0}, "tle": {"line1": "1 35885U 93036ATY 25345.58367066  .00001554  00000+0  52576-3 0  9992", "line2": "2 35885  74.0283 296.9234 0023132  17.6536 342.5416 14.37516980649995"}}, "geometry": {"type": "Point", "coordinates": [127.86020567113104, -36.63256135865223]}}, {"type": "Feature", "properties": {"norad_id": 35888, "name": "COSMOS 2251 DEB", "group": "cosmos-2251-debris", "lat": 37.03110530402788, "lon": 164.99089025472625, "alt_km": 662.0990140769181, "timestamp": "2025-12-12T07:43:20.912713+00:00", "meta": {"OBJECT_NAME": "COSMOS 2251 DEB", "OBJECT_ID": "1993-036AUB", "EPOCH": "2025-12-10T18:51:31.727232", "MEAN_MOTION": 14.58307538, "ECCENTRICITY": 0.00482976, "INCLINATION": 74.0337, "RA_OF_ASC_NODE": 0.3865, "ARG_OF_PERICENTER": 133.126, "MEAN_ANOMALY": 227.3961, "EPHEMERIS_TYPE": 0, "CLASSIFICATION_TYPE": "U", "NORAD_CAT_ID": 35888, "ELEMENT_SET_NO": 999, "REV_AT_EPOCH": 86245, "BSTAR": 0.00056484468, "MEAN_MOTION_DOT": 2.626e-05, "MEAN_MOTION_DDOT": 0}, "tle": {"line1": "1 35888U 93036AUB 25344.78578388  .00002626  00000+0  56484-3 0  9990", "line2": "2 35888  74.0337   0.3865 0048297 133.1260 227.3961 14.58307538862455"}}, "geometry": {"type": "Point", "coordinates": [164.99089025472625, 37.03110530402788]}}, {"type": "Feature", "properties": {"norad_id": 35890, "name": "COSMOS 2251 DEB", "group": "cosmos-2251-debris", "lat": -4.38865318078102, "lon": 64.76758332027603, "alt_km": 742.4679619794288, "timestamp": "2025-12-12T07:43:20.912723+00:00", "meta": {"OBJECT_NAME": "COSMOS 2251 DEB", "OBJECT_ID": "1993-036AUD", "EPOCH": "2025-12-11T11:06:40.401504", "MEAN_MOTION": 14.57450007, "ECCENTRICITY": 0.00537284, "INCLINATION": 73.9357, "RA_OF_ASC_NODE": 245.1419, "ARG_OF_PERICENTER": 9.9774, "MEAN_ANOMALY": 350.2442, "EPHEMERIS_TYPE": 0, "CLASSIFICATION_TYPE": "U", "NORAD_CAT_ID": 35890, "ELEMENT_SET_NO": 999, "REV_AT_EPOCH": 65132, "BSTAR": 0.0035408438, "MEAN_MOTION_DOT": 0.00016406, "MEAN_MOTION_DDOT": 0}, "tle": {"line1": "1 35890U 93036AUD 25345.46296761  .00016406  00000+0  35408-2 0  9994", "line2": "2 35890  73.9357 245.1419 0053728   9.9774 350.2442 14.57450007651328"}}, "geometry": {"type": "Point", "coordinates": [64.76758332027603, -4.38865318078102]}}, {"type": "Feature", "properties": {"norad_id": 35891, "name": "COSMOS 2251 DEB", "group": "cosmos-2251-debris", "lat": -31.7599263903157, "lon": 84.53260550064597, "alt_km": 477.99142359739835, "timestamp": "2025-12-12T07:43:20.912734+00:00", "meta": {"OBJECT_NAME": "COSMOS 2251 DEB", "OBJECT_ID": "1993-036AUE", "EPOCH": "2025-12-10T15:08:56.488704", "MEAN_MOTION": 15.33032056, "ECCENTRICITY": 0.0044173, "INCLINATION": 73.9885, "RA_OF_ASC_NODE": 98.397, "ARG_OF_PERICENTER": 228.9907, "MEAN_ANOMALY": 130.7474, "EPHEMERIS_TYPE": 0, "CLASSIFICATION_TYPE": "U", "NORAD_CAT_ID": 35891, "ELEMENT_SET_NO": 999, "REV_AT_EPOCH": 67188, "BSTAR": 0.0020263, "MEAN_MOTION_DOT": 0.00067253, "MEAN_MOTION_DDOT": 0}, "tle": {"line1": "1 35891U 93036AUE 25344.63120936  .00067253  00000+0  20263-2 0  9992", "line2": "2 35891  73.9885  98.3970 0044173 228.9907 130.7474 15.33032056671884"}}, "geometry": {"type": "Point", "coordinates": [84.53260550064597, -31.7599263903157]}}, {"type": "Feature", "properties": {"norad_id": 35895, "name": "COSMOS 2251 DEB", "group": "cosmos-2251-debris", "lat": 54.45307462533684, "lon": 144.79749754947633, "alt_km": 764.2529278962857, "timestamp": "2025-12-12T07:43:20.912744+00:00", "meta": {"OBJECT_NAME": "COSMOS 2251 DEB", "OBJECT_ID": "1993-036AUJ", "EPOCH": "2025-12-11T07:10:31.732032", "MEAN_MOTION": 14.01513994, "ECCENTRICITY": 0.01987879, "INCLINATION": 74.0502, "RA_OF_ASC_NODE": 350.1634, "ARG_OF_PERICENTER": 88.7843, "MEAN_ANOMALY": 273.6056, "EPHEMERIS_TYPE": 0, "CLASSIFICATION_TYPE": "U", "NORAD_CAT_ID": 35895, "ELEMENT_SET_NO": 999, "REV_AT_EPOCH": 58992, "BSTAR": 0.0020881347, "MEAN_MOTION_DOT": 3.73e-05, "MEAN_MOTION_DDOT": 0}, "tle": {"line1": "1 35895U 93036AUJ 25345.29897838  .00003730  00000+0  20881-2 0  9997", "line2": "2 35895  74.0502 350.1634 0198787  88.7843 273.6056 14.01513994589929"}}, "geometry": {"type": "Point", "coordinates": [144.79749754947633, 54.45307462533684]}}, {"type": "Feature", "properties": {"norad_id": 35898, "name": "COSMOS 2251 DEB", "group": "cosmos-2251-debris", "lat": -25.221638184583732, "lon": 126.07197636933023, "alt_km": 619.39209684672, "timestamp": "2025-12-12T07:43:20.912754+00:00", "meta": {"OBJECT_NAME": "COSMOS 2251 DEB", "OBJECT_ID": "1993-036AUM", "EPOCH": "2025-12-11T03:33:58.696128", "MEAN_MOTION": 14.94658859, "ECCENTRICITY": 0.00792199, "INCLINATION": 73.9916, "RA_OF_ASC_NODE": 300.6702, "ARG_OF_PERICENTER": 84.5945, "MEAN_ANOMALY": 290.8859, "EPHEMERIS_TYPE": 0, "CLASSIFICATION_TYPE": "U", "NORAD_CAT_ID": 35898, "ELEMENT_SET_NO": 999, "REV_AT_EPOCH": 66786, "BSTAR": 0.001087469, "MEAN_MOTION_DOT": 0.00012532, "MEAN_MOTION_DDOT": 0}, "tle": {"line1": "1 35898U 93036AUM 25345.14859602  .00012532  00000+0  10875-2 0  9993", "line2": "2 35898  73.9916 300.6702 0079219  84.5945 290.8859 14.94658859667864"}}, "geometry": {"type": "Point", "coordinates": [126.07197636933023, -25.221638184583732]}}, {"type": "Feature", "properties": {"norad_id": 35901, "name": "COSMOS 2251 DEB", "group": "cosmos-2251-debris", "lat": -10.349087639615963, "lon": -153.26540460658782, "alt_km": 553.5292486529315, "timestamp": "2025-12-12T07:43:20.912765+00:00", "meta": {"OBJECT_NAME": "COSMOS 2251 DEB", "OBJECT_ID": "1993-036AUQ", "EPOCH": "2025-12-07T10:36:21.692736", "MEAN_MOTION": 15.06319673, "ECCENTRICITY": 0.00066034, "INCLINATION": 74.0121, "RA_OF_ASC_NODE": 33.7639, "ARG_OF_PERICENTER": 0.5644, "MEAN_ANOMALY": 13.1472, "EPHEMERIS_TYPE": 0, "CLASSIFICATION_TYPE": "U", "NORAD_CAT_ID": 35901, "ELEMENT_SET_NO": 999, "REV_AT_EPOCH": 86047, "BSTAR": 0.0047775116, "MEAN_MOTION_DOT": 0.0007096, "MEAN_MOTION_DDOT": 0}, "tle": {"line1": "1 35901U 93036AUQ 25341.44191774  .00070960  00000+0  47775-2 0  9994", "line2": "2 35901  74.0121  33.7639 0006603   0.5644  13.1472 15.06319673860474"}}, "geometry": {"type": "Point", "coordinates": [-153.26540460658782, -10.349087639615963]}}, {"type": "Feature", "properties": {"norad_id": 35902, "name": "COSMOS 2251 DEB", "group": "cosmos-2251-debris", "lat": -52.994042750842276, "lon": 77.74414954937491, "alt_km": 837.9147462758374, "timestamp": "2025-12-12T07:43:20.912775+00:00", "meta": {"OBJECT_NAME": "COSMOS 2251 DEB", "OBJECT_ID": "1993-036AUR", "EPOCH": "2025-12-10T09:10:56.598528", "MEAN_MOTION": 14.26883589, "ECCENTRICITY": 0.01019996, "INCLINATION": 73.9827, "RA_OF_ASC_NODE": 238.8593, "ARG_OF_PERICENTER": 354.0936, "MEAN_ANOMALY": 5.8999, "EPHEMERIS_TYPE": 0, "CLASSIFICATION_TYPE": "U", "NORAD_CAT_ID": 35902, "ELEMENT_SET_NO": 999, "REV_AT_EPOCH": 61096, "BSTAR": 0.0017323625, "MEAN_MOTION_DOT": 4.42e-05, "MEAN_MOTION_DDOT": 0}, "tle": {"line1": "1 35902U 93036AUR 25344.38259952  .00004420  00000+0  17324-2 0  9999", "line2": "2 35902  73.9827 238.8593 0101999 354.0936   5.8999 14.26883589610960"}}, "geometry": {"type": "Point", "coordinates": [77.74414954937491, -52.994042750842276]}}, {"type": "Feature", "properties": {"norad_id": 35905, "name": "COSMOS 2251 DEB", "group": "cosmos-2251-debris", "lat": 72.22429398906897, "lon": -85.06511179559658, "alt_km": 617.2943673474874, "timestamp": "2025-12-12T07:43:20.912785+00:00", "meta": {"OBJECT_NAME": "COSMOS 2251 DEB", "OBJECT_ID": "1993-036AUU", "EPOCH": "2025-12-11T08:55:52.650624", "MEAN_MOTION": 14.98993139, "ECCENTRICITY": 0.00908105, "INCLINATION": 74.0316, "RA_OF_ASC_NODE": 213.5888, "ARG_OF_PERICENTER": 293.9806, "MEAN_ANOMALY": 65.1892, "EPHEMERIS_TYPE": 0, "CLASSIFICATION_TYPE": "U", "NORAD_CAT_ID": 35905, "ELEMENT_SET_NO": 999, "REV_AT_EPOCH": 88562, "BSTAR": 0.0009939745, "MEAN_MOTION_DOT": 0.00013108, "MEAN_MOTION_DDOT": 0}, "tle": {"line1": "1 35905U 93036AUU 25345.37213716  .00013108  00000+0  99397-3 0  9994", "line2": "2 35905  74.0316 213.5888 0090810 293.9806  65.1892 14.98993139885621"}}, "geometry": {"type": "Point", "coordinates": [-85.06511179559658, 72.22429398906897]}}, {"type": "Feature", "properties": {"norad_id": 35959, "name": "COSMOS 2251 DEB", "group": "cosmos-2251-debris", "lat": -46.78214628276817, "lon": -64.91127980357065, "alt_km": 782.3782690797716, "timestamp": "2025-12-12T07:43:20.912796+00:00", "meta": {"OBJECT_NAME": "COSMOS 2251 DEB", "OBJECT_ID": "1993-036AUZ", "EPOCH": "2025-12-11T21:54:23.198400", "MEAN_MOTION": 14.34135067, "ECCENTRICITY": 0.00215113, "INCLINATION": 74.0325, "RA_OF_ASC_NODE": 313.5776, "ARG_OF_PERICENTER": 34.3207, "MEAN_ANOMALY": 325.9329, "EPHEMERIS_TYPE": 0, "CLASSIFICATION_TYPE": "U", "NORAD_CAT_ID": 35959, "ELEMENT_SET_NO": 999, "REV_AT_EPOCH": 84916, "BSTAR": 0.00020185206, "MEAN_MOTION_DOT": 5.4e-06, "MEAN_MOTION_DDOT": 0}, "tle": {"line1": "1 35959U 93036AUZ 25345.91276850  .00000540  00000+0  20185-3 0  9996", "line2": "2 35959  74.0325 313.5776 0021511  34.3207 325.9329 14.34135067849160"}}, "geometry": {"type": "Point", "coordinates": [-64.91127980357065, -46.78214628276817]}}]}